NORAD_CAT_ID,OBJECT_NAME,OBJECT_TYPE,EPOCH,MEAN_MOTION,ECCENTRICITY,INCLINATION,RA_OF_ASC_NODE,ARG_OF_PERICENTER,MEAN_ANOMALY,BSTAR,MEAN_MOTION_DOT,MEAN_MOTION_DDOT,TLE_LINE0,TLE_LINE1,TLE_LINE2,SEMIMAJOR_AXIS,PERIOD,APOGEE,PERIGEE,DECAYED
53836.0,STARLINK-4778,PAYLOAD,2023-09-12 17:02:25,15.08840606,0.0001394,53.2161,54.8876,111.4359,248.6782,6.5277e-05,7.51e-06,0.0,0 STARLINK-4778,1 53836U 22114U   23255.71002012  .00000751  00000-0  65277-4 0  9999,2 53836  53.2161  54.8876 0001394 111.4359 248.6782 15.08840606 55740,6917.879,95.438,540.708,538.779,0.0
53836.0,STARLINK-4778,PAYLOAD,2023-09-13 04:10:07,15.08847836,0.0001439,53.2165,52.8068,92.4457,267.67,0.00022072,3.227e-05,0.0,0 STARLINK-4778,1 53836U 22114U   23256.17369988  .00003227  00000-0  22072-3 0  9994,2 53836  53.2165  52.8068 0001439  92.4457 267.6700 15.08847836 55813,6917.856,95.437,540.717,538.726,0.0
53836.0,STARLINK-4778,PAYLOAD,2023-09-13 16:53:12,15.08851362,0.0001439,53.2169,50.4276,93.94,266.1757,0.00039721,6.041e-05,0.0,0 STARLINK-4778,1 53836U 22114U   23256.70361848  .00006041  00000-0  39721-3 0  9996,2 53836  53.2169  50.4276 0001439  93.9400 266.1757 15.08851362 55350,6917.846,95.437,540.706,538.715,0.0
53836.0,STARLINK-4778,PAYLOAD,2023-09-14 13:33:14,15.08833464,0.000134,53.2169,46.5625,87.7609,272.3537,0.00011295,1.51e-05,0.0,0 STARLINK-4778,1 53836U 22114U   23257.56475015  .00001510  00000-0  11295-3 0  9995,2 53836  53.2169  46.5625 0001340  87.7609 272.3537 15.08833464 56020,6917.9,95.438,540.692,538.838,0.0
53836.0,STARLINK-4778,PAYLOAD,2023-09-14 16:44:00,15.08828239,0.0001294,53.2166,45.9685,74.3765,285.737,3.9508e-05,3.41e-06,0.0,0 STARLINK-4778,1 53836U 22114U   23257.69723234  .00000341  00000-0  39508-4 0  9997,2 53836  53.2166  45.9685 0001294  74.3765 285.7370 15.08828239 55508,6917.916,95.438,540.677,538.886,0.0
53836.0,STARLINK-4778,PAYLOAD,2023-09-15 10:13:15,15.08842188,0.0001363,53.217,42.6993,71.3026,288.8114,0.00036945,5.597e-05,0.0,0 STARLINK-4778,1 53836U 22114U   23258.42587336  .00005597  00000-0  36945-3 0  9999,2 53836  53.2170  42.6993 0001363  71.3026 288.8114 15.08842188 55614,6917.874,95.437,540.682,538.796,0.0
53836.0,STARLINK-4778,PAYLOAD,2023-09-15 13:24:01,15.08846602,0.0001286,53.2174,42.1033,71.1532,288.9599,0.00047392,7.264e-05,0.0,0 STARLINK-4778,1 53836U 22114U   23258.55835203  .00007264  00000-0  47392-3 0  9993,2 53836  53.2174  42.1033 0001286  71.1532 288.9599 15.08846602 56177,6917.86,95.437,540.615,538.836,0.0
53836.0,STARLINK-4778,PAYLOAD,2023-09-15 16:34:47,15.08855055,0.0001345,53.2173,41.5077,70.8254,289.2884,0.00080818,0.00012603,0.0,0 STARLINK-4778,1 53836U 22114U   23258.69083084  .00012603  00000-0  80818-3 0  9993,2 53836  53.2173  41.5077 0001345  70.8254 289.2884 15.08855055 55655,6917.834,95.437,540.63,538.769,0.0
53836.0,STARLINK-4778,PAYLOAD,2023-09-16 10:04:02,15.08841969,0.0001529,53.2182,38.2384,75.1864,284.9297,5.1225e-05,5.27e-06,0.0,0 STARLINK-4778,1 53836U 22114U   23259.41947266  .00000527  00000-0  51225-4 0  9998,2 53836  53.2182  38.2384 0001529  75.1864 284.9297 15.08841969 55769,6917.874,95.437,540.797,538.682,0.0
53836.0,STARLINK-4778,PAYLOAD,2023-09-16 13:14:48,15.08842868,0.0001345,53.2176,37.6422,76.8389,283.2754,0.00018239,2.616e-05,0.0,0 STARLINK-4778,1 53836U 22114U   23259.55195226  .00002616  00000-0  18239-3 0  9992,2 53836  53.2176  37.6422 0001345  76.8389 283.2754 15.08842868 56326,6917.872,95.437,540.667,538.806,0.0
53836.0,STARLINK-4778,PAYLOAD,2023-09-16 16:25:34,15.08849966,0.0001282,53.2179,37.0474,75.0511,285.0623,0.0004028,6.13e-05,0.0,0 STARLINK-4778,1 53836U 22114U   23259.68442909  .00006130  00000-0  40280-3 0  9995,2 53836  53.2179  37.0474 0001282  75.0511 285.0623 15.08849966 55801,6917.85,95.437,540.602,538.828,0.0
53836.0,STARLINK-4778,PAYLOAD,2023-09-17 08:19:26,15.088495,0.0001169,53.2174,34.074,70.7516,289.3603,0.00088181,0.00013778,0.0,0 STARLINK-4778,1 53836U 22114U   23260.34683274  .00013778  00000-0  88181-3 0  9990,2 53836  53.2174  34.0740 0001169  70.7516 289.3603 15.08849500 55900,6917.851,95.437,540.525,538.908,0.0
53836.0,STARLINK-4778,PAYLOAD,2023-09-17 13:05:35,15.08845531,0.0001204,53.2175,33.1826,76.9769,283.1358,0.00049925,7.668e-05,0.0,0 STARLINK-4778,1 53836U 22114U   23260.54555204  .00007668  00000-0  49925-3 0  9997,2 53836  53.2175  33.1826 0001204  76.9769 283.1358 15.08845531 56476,6917.863,95.437,540.561,538.896,0.0
53836.0,STARLINK-4778,PAYLOAD,2023-09-18 01:48:40,15.0884522,0.0001175,53.2178,30.8037,85.4839,274.6287,0.00028852,4.308e-05,0.0,0 STARLINK-4778,1 53836U 22114U   23261.07547134  .00004308  00000-0  28852-3 0  9993,2 53836  53.2178  30.8037 0001175  85.4839 274.6287 15.08845220 56018,6917.864,95.437,540.542,538.917,0.0
53836.0,STARLINK-4778,PAYLOAD,2023-09-18 12:56:23,15.08839649,0.0001731,53.2176,28.722,82.8978,277.2211,0.00013088,1.795e-05,0.0,0 STARLINK-4778,1 53836U 22114U   23261.53915608  .00001795  00000-0  13088-3 0  9991,2 53836  53.2176  28.7220 0001731  82.8978 277.2211 15.08839649 56620,6917.881,95.438,540.944,538.549,0.0
53836.0,STARLINK-4778,PAYLOAD,2023-09-18 17:42:32,15.08844152,0.0001479,53.218,27.8306,81.8756,278.2404,0.00019728,2.853e-05,0.0,0 STARLINK-4778,1 53836U 22114U   23261.73787388  .00002853  00000-0  19728-3 0  9998,2 53836  53.2180  27.8306 0001479  81.8756 278.2404 15.08844152 56116,6917.868,95.437,540.756,538.71,0.0
53836.0,STARLINK-4778,PAYLOAD,2023-09-19 15:57:55,15.08866408,0.0001489,53.2179,23.6663,91.7658,268.3504,0.0008137,0.00012695,0.0,0 STARLINK-4778,1 53836U 22114U   23262.66522523  .00012695  00000-0  81370-3 0  9996,2 53836  53.2179  23.6663 0001489  91.7658 268.3504 15.08866408 56250,6917.8,95.436,540.695,538.635,0.0
53836.0,STARLINK-4778,PAYLOAD,2023-09-20 12:37:56,15.08851485,0.0001419,53.2194,19.7995,99.6418,260.4735,0.00033564,5.059e-05,0.0,0 STARLINK-4778,1 53836U 22114U   23263.52634476  .00005059  00000-0  33564-3 0  9991,2 53836  53.2194  19.7995 0001419  99.6418 260.4735 15.08851485 56387,6917.845,95.437,540.692,538.729,0.0
53836.0,STARLINK-4778,PAYLOAD,2023-09-20 14:13:19,15.08852931,0.0001644,53.2194,19.5019,87.6741,272.444,0.00044207,6.757e-05,0.0,0 STARLINK-4778,1 53836U 22114U   23263.59258556  .00006757  00000-0  44207-3 0  9991,2 53836  53.2194  19.5019 0001644  87.6741 272.4440 15.08852931 56932,6917.841,95.437,540.843,538.569,0.0
53836.0,STARLINK-4778,PAYLOAD,2023-09-21 10:53:20,15.08840139,0.0001428,53.2183,15.6388,83.2437,276.8717,0.001104,0.00017326,0.0,0 STARLINK-4778,1 53836U 22114U   23264.45371473  .00017326  00000-0  11040-2 0  9993,2 53836  53.2183  15.6388 0001428  83.2437 276.8717 15.08840139 56527,6917.88,95.438,540.733,538.757,0.0
53836.0,STARLINK-4778,PAYLOAD,2023-09-21 12:28:44,15.08835757,0.0001453,53.2181,15.3416,94.1091,266.0067,0.0010005,0.00015669,0.0,0 STARLINK-4778,1 53836U 22114U   23264.51995531  .00015669  00000-0  10005-2 0  9995,2 53836  53.2181  15.3416 0001453  94.1091 266.0067 15.08835757 57079,6917.893,95.438,540.764,538.753,0.0
53836.0,STARLINK-4778,PAYLOAD,2023-09-21 14:04:07,15.08831381,0.0001587,53.2178,15.0442,69.5458,290.5704,0.00072454,0.00011259,0.0,0 STARLINK-4778,1 53836U 22114U   23264.58619732  .00011259  00000-0  72454-3 0  9996,2 53836  53.2178  15.0442 0001587  69.5458 290.5704 15.08831381 56542,6917.907,95.438,540.87,538.674,0.0
53836.0,STARLINK-4778,PAYLOAD,2023-09-21 18:50:16,15.08843345,0.0001255,53.2181,14.1508,86.7873,273.3263,0.00066494,0.00010311,0.0,0 STARLINK-4778,1 53836U 22114U   23264.78491408  .00010311  00000-0  66494-3 0  9991,2 53836  53.2181  14.1508 0001255  86.7873 273.3263 15.08843345 57119,6917.87,95.437,540.603,538.867,0.0
53836.0,STARLINK-4778,PAYLOAD,2023-09-22 12:19:31,15.08847644,0.0001674,53.2195,10.8802,68.9969,291.1202,0.00064325,9.966e-05,0.0,0 STARLINK-4778,1 53836U 22114U   23265.51355364  .00009966  00000-0  64325-3 0  9998,2 53836  53.2195  10.8802 0001674  68.9969 291.1202 15.08847644 57226,6917.857,95.437,540.88,538.564,0.0
53836.0,STARLINK-4778,PAYLOAD,2023-09-22 15:30:17,15.08857615,0.0001603,53.2192,10.2841,85.154,274.9635,0.00091264,0.00014273,0.0,0 STARLINK-4778,1 53836U 22114U   23265.64603025  .00014273  00000-0  91264-3 0  9991,2 53836  53.2192  10.2841 0001603  85.1540 274.9635 15.08857615 56708,6917.827,95.436,540.8,538.583,0.0
53836.0,STARLINK-4778,PAYLOAD,2023-09-23 12:10:17,15.08852625,0.0001719,53.2191,6.4155,115.2419,244.8751,0.00033289,5.016e-05,0.0,0 STARLINK-4778,1 53836U 22114U   23266.50714721  .00005016  00000-0  33289-3 0  9991,2 53836  53.2191   6.4155 0001719 115.2419 244.8751 15.08852625 56835,6917.842,95.437,540.896,538.518,0.0
53836.0,STARLINK-4778,PAYLOAD,2023-09-24 10:25:41,15.08838905,0.0001743,53.218,2.2574,110.6534,249.4645,-5.2958e-05,-1.131e-05,0.0,0 STARLINK-4778,1 53836U 22114U   23267.43451029 -.00001131  00000-0 -52958-4 0  9994,2 53836  53.2180   2.2574 0001743 110.6534 249.4645 15.08838905 56979,6917.884,95.438,540.955,538.543,0.0
53836.0,STARLINK-4778,PAYLOAD,2023-09-24 13:36:28,15.088406,0.0001447,53.2182,1.6628,85.985,274.1307,-2.8537e-05,-7.42e-06,0.0,0 STARLINK-4778,1 53836U 22114U   23267.56699157 -.00000742  00000-0 -28537-4 0  9997,2 53836  53.2182   1.6628 0001447  85.9850 274.1307 15.08840600 57538,6917.879,95.438,540.745,538.743,0.0
53836.0,STARLINK-4778,PAYLOAD,2023-09-24 15:11:51,15.08841533,0.0001463,53.218,1.3637,86.92,273.1959,1.9246e-05,1.8e-07,0.0,0 STARLINK-4778,1 53836U 22114U   23267.63323235  .00000018  00000-0  19246-4 0  9997,2 53836  53.2180   1.3637 0001463  86.9200 273.1959 15.08841533 57540,6917.876,95.437,540.753,538.729,0.0
53836.0,STARLINK-4778,PAYLOAD,2023-09-25 05:30:19,15.08835345,0.0001366,53.217,358.6854,129.1781,230.9333,4.0755e-05,3.61e-06,0.0,0 STARLINK-4778,1 53836U 22114U   23268.22939725  .00000361  00000-0  40755-4 0  9990,2 53836  53.2170 358.6854 0001366 129.1781 230.9333 15.08835345 57095,6917.895,95.438,540.705,538.815,0.0
